{"epoch":1784710044,"count":18256,"objects":[{"id":"56804","name":"STARLINK-6069","type":"PAYLOAD","l1":"1 56804U 23078AP  26202.39906588 -.00000840  00000-0 -62601-4 0  9996","l2":"2 56804  70.0009 347.2567 0002752 266.6500  93.4344 14.98327474173878"},{"id":"56805","name":"STARLINK-6064","type":"PAYLOAD","l1":"1 56805U 23078AQ  26202.40323420 -.00000582  00000-0 -41022-4 0  9994","l2":"2 56805  70.0009 347.2698 0002615 268.0813  92.0046 14.98335393173205"},{"id":"56806","name":"STARLINK-6072","type":"PAYLOAD","l1":"1 56806U 23078AR  26202.63247755  .00000053  00000-0  12268-4 0  9997","l2":"2 56806  70.0009 326.5833 0003146 266.7572  93.3227 14.98330773173701"},{"id":"56807","name":"STARLINK-6073","type":"PAYLOAD","l1":"1 56807U 23078AS  26202.11531844  .00002590  00000-0  22476-3 0  9995","l2":"2 56807  70.0029 347.8704 0003161 272.3517  87.7280 14.98338440173150"},{"id":"56808","name":"STARLINK-6042","type":"PAYLOAD","l1":"1 56808U 23078AT  26202.32129490 -.00000121  00000-0 -23365-5 0  9999","l2":"2 56808  69.9999 297.6071 0003288 267.4063  92.6719 14.98329826174436"},{"id":"56809","name":"STARLINK-6040","type":"PAYLOAD","l1":"1 56809U 23078AU  26202.20735255  .00000217  00000-0  25994-4 0  9992","l2":"2 56809  70.0009   7.6591 0002900 259.9149 100.1683 14.98339321172680"},{"id":"56810","name":"STARLINK-6031","type":"PAYLOAD","l1":"1 56810U 23078AV  26202.42432571  .00000204  00000-0  24864-4 0  9994","l2":"2 56810  70.0006   7.2103 0003119 262.8042  97.2762 14.98337861172717"},{"id":"56812","name":"STARLINK-6065","type":"PAYLOAD","l1":"1 56812U 23078AX  26202.39087538  .00000561  00000-0  54790-4 0  9998","l2":"2 56812  69.9999 347.2328 0003068 269.9168  90.1640 14.98333100173207"},{"id":"56813","name":"STARLINK-6056","type":"PAYLOAD","l1":"1 56813U 23078AY  26202.47037785  .00000338  00000-0  36093-4 0  9995","l2":"2 56813  70.0007   6.9714 0002899 265.1662  94.9167 14.98331132172722"},{"id":"56814","name":"STARLINK-6059","type":"PAYLOAD","l1":"1 56814U 23078AZ  26202.41180254  .00000442  00000-0  44815-4 0  9997","l2":"2 56814  70.0005   7.1674 0002908 264.9984  95.0843 14.98332139172714"},{"id":"56816","name":"STARLINK-6067","type":"PAYLOAD","l1":"1 56816U 23078BB  26202.64522417  .00000141  00000-0  19597-4 0  9990","l2":"2 56816  70.0012 346.5095 0002927 265.9488  94.1336 14.98330482173247"},{"id":"56818","name":"STARLINK-6028","type":"PAYLOAD","l1":"1 56818U 23078BD  26202.47021956  .00003932  00000-0  33706-3 0  9993","l2":"2 56818  70.0026   6.9698 0002822 267.5058  92.5778 14.98337063173418"},{"id":"56823","name":"STARLINK-30119","type":"PAYLOAD","l1":"1 56823U 23079A   26202.06539060  .00000280  00000-0  19699-4 0  9994","l2":"2 56823  43.0013  74.0464 0001270 263.7960  96.2746 15.27575058173713"},{"id":"56824","name":"STARLINK-30120","type":"PAYLOAD","l1":"1 56824U 23079B   26202.01413309 -.00001407  00000-0 -41621-4 0  9991","l2":"2 56824  43.0005  74.5300 0001051 272.6340  87.4392 15.27586801173590"},{"id":"56825","name":"STARLINK-30084","type":"PAYLOAD","l1":"1 56825U 23079C   26202.01913308 -.00000712  00000-0 -16363-4 0  9999","l2":"2 56825  43.0022  73.7145 0000914 274.8902  85.1846 15.27578164173281"},{"id":"56826","name":"STARLINK-30114","type":"PAYLOAD","l1":"1 56826U 23079D   26201.99225995  .00000267  00000-0  19221-4 0  9993","l2":"2 56826  43.0015  74.1719 0001165 271.6616  88.4102 15.27581375173584"},{"id":"56827","name":"STARLINK-30151","type":"PAYLOAD","l1":"1 56827U 23079E   26202.04868167  .00001569  00000-0  66524-4 0  9999","l2":"2 56827  43.0031  73.9152 0001245 265.7140  94.3569 15.27584595173283"},{"id":"56828","name":"STARLINK-30152","type":"PAYLOAD","l1":"1 56828U 23079F   26201.98715209  .00000745  00000-0  36572-4 0  9995","l2":"2 56828  43.0030  74.3244 0001109 268.5204  91.5521 15.27582033173272"},{"id":"56832","name":"STARLINK-30128","type":"PAYLOAD","l1":"1 56832U 23079K   26202.61720765 -.00002843  00000-0 -93845-4 0  9993","l2":"2 56832  43.0020  44.8832 0002169 251.0269 109.0348 15.27566737167263"},{"id":"56833","name":"STARLINK-30131","type":"PAYLOAD","l1":"1 56833U 23079L   26201.01228461  .00012463  00000-0  49984-3 0  9994","l2":"2 56833  43.0043  58.7847 0004526 242.8394 117.1995 15.24930458173363"},{"id":"56834","name":"STARLINK-30069","type":"PAYLOAD","l1":"1 56834U 23079M   26201.98379158  .00000404  00000-0  24194-4 0  9990","l2":"2 56834  43.0014  70.8824 0001351 261.6090  98.4609 15.27576916173313"},{"id":"56835","name":"STARLINK-30144","type":"PAYLOAD","l1":"1 56835U 23079N   26201.99225376  .00030162  00000-0  66615-3 0  9991","l2":"2 56835  42.9919  62.2093 0016770 245.3074 114.6037 15.43152479173410"},{"id":"56836","name":"STARLINK-30142","type":"PAYLOAD","l1":"1 56836U 23079P   26201.92996761  .00000099  00000-0  13108-4 0  9994","l2":"2 56836  43.0023  71.3443 0001004 265.7095  94.3642 15.27582336173307"},{"id":"56837","name":"STARLINK-30133","type":"PAYLOAD","l1":"1 56837U 23079Q   26202.01784729  .00002230  00000-0  90592-4 0  9996","l2":"2 56837  43.0042  73.6854 0001268 262.7343  97.3365 15.27565707173280"},{"id":"56838","name":"STARLINK-30123","type":"PAYLOAD","l1":"1 56838U 23079R   26202.45384787  .00000475  00000-0  26781-4 0  9993","l2":"2 56838  43.0017 358.5126 0001039 271.3730  88.7002 15.27577217174206"},{"id":"56839","name":"STARLINK-30076","type":"PAYLOAD","l1":"1 56839U 23079S   26201.98200906  .00000901  00000-0  42265-4 0  9990","l2":"2 56839  43.0037  74.2673 0001188 271.3000  88.7715 15.27583513173276"},{"id":"56840","name":"STARLINK-30073","type":"PAYLOAD","l1":"1 56840U 23079T   26202.58335648  .00060335  00000-0  21860-2 0  9994","l2":"2 56840  43.0021 256.2203 0001572 284.3688 337.4589 15.27552847  5852"},{"id":"56841","name":"STARLINK-30078","type":"PAYLOAD","l1":"1 56841U 23079U   26202.50451474  .00000439  00000-0  25475-4 0  9990","l2":"2 56841  43.0036  23.6478 0001355 263.4318  96.6379 15.27580471173914"},{"id":"56842","name":"STARLINK-30135","type":"PAYLOAD","l1":"1 56842U 23079V   26201.99613202 -.00000280  00000-0 -64274-6 0  9990","l2":"2 56842  43.0021  74.2907 0001231 271.7973  88.2737 15.27578438173274"},{"id":"56843","name":"STARLINK-30137","type":"PAYLOAD","l1":"1 56843U 23079W   26202.36403799 -.00000354  00000-0 -33348-5 0  9990","l2":"2 56843  43.0050  71.8941 0001400 264.7933  95.2759 15.27574762173339"}]}