OBJECT_NAME,OBJECT_ID,EPOCH,MEAN_MOTION,ECCENTRICITY,INCLINATION,RA_OF_ASC_NODE,ARG_OF_PERICENTER,MEAN_ANOMALY,EPHEMERIS_TYPE,CLASSIFICATION_TYPE,NORAD_CAT_ID,ELEMENT_SET_NO,REV_AT_EPOCH,BSTAR,MEAN_MOTION_DOT,MEAN_MOTION_DDOT
STARLINK-6069,2023-078AP,2026-07-21T09:34:39.292032,14.98327474,.00027516,70.0009,347.2567,266.6500,93.4344,0,U,56804,999,17387,-.62600707E-4,-.84E-5,0
STARLINK-6064,2023-078AQ,2026-07-21T09:40:39.434880,14.98335393,.00026154,70.0009,347.2698,268.0813,92.0046,0,U,56805,999,17320,-.41022005E-4,-.582E-5,0
STARLINK-6072,2023-078AR,2026-07-21T15:10:46.060320,14.98330773,.00031457,70.0009,326.5833,266.7572,93.3227,0,U,56806,999,17370,.12268347E-4,.53E-6,0
STARLINK-6073,2023-078AS,2026-07-21T02:46:03.513216,14.98338440,.00031609,70.0029,347.8704,272.3517,87.7280,0,U,56807,999,17315,.22476364E-3,.259E-4,0
STARLINK-6042,2023-078AT,2026-07-21T07:42:39.879360,14.98329826,.00032878,69.9999,297.6071,267.4063,92.6719,0,U,56808,999,17443,-.2336467E-5,-.121E-5,0
STARLINK-6040,2023-078AU,2026-07-21T04:58:35.260320,14.98339321,.00029004,70.0009,7.6591,259.9149,100.1683,0,U,56809,999,17268,.25994015E-4,.217E-5,0
STARLINK-6031,2023-078AV,2026-07-21T10:11:01.741344,14.98337861,.00031193,70.0006,7.2103,262.8042,97.2762,0,U,56810,999,17271,.2486412E-4,.204E-5,0
STARLINK-6065,2023-078AX,2026-07-21T09:22:51.632832,14.98333100,.00030677,69.9999,347.2328,269.9168,90.1640,0,U,56812,999,17320,.54789785E-4,.561E-5,0
STARLINK-6056,2023-078AY,2026-07-21T11:17:20.646240,14.98331132,.00028991,70.0007,6.9714,265.1662,94.9167,0,U,56813,999,17272,.36093379E-4,.338E-5,0
STARLINK-6059,2023-078AZ,2026-07-21T09:52:59.739456,14.98332139,.00029077,70.0005,7.1674,264.9984,95.0843,0,U,56814,999,17271,.44814937E-4,.442E-5,0
STARLINK-6067,2023-078BB,2026-07-21T15:29:07.368288,14.98330482,.00029268,70.0012,346.5095,265.9488,94.1336,0,U,56816,999,17324,.19596687E-4,.141E-5,0
STARLINK-6028,2023-078BD,2026-07-21T11:17:06.969984,14.98337063,.00028222,70.0026,6.9698,267.5058,92.5778,0,U,56818,999,17341,.33706106E-3,.3932E-4,0
STARLINK-30119,2023-079A,2026-07-21T01:34:09.747840,15.27575058,.00012705,43.0013,74.0464,263.7960,96.2746,0,U,56823,999,17371,.19698568E-4,.28E-5,0
STARLINK-30120,2023-079B,2026-07-21T00:20:21.098976,15.27586801,.00010507,43.0005,74.5300,272.6340,87.4392,0,U,56824,999,17359,-.4162061E-4,-.1407E-4,0
STARLINK-30084,2023-079C,2026-07-21T00:27:33.098112,15.27578164,.00009135,43.0022,73.7145,274.8902,85.1846,0,U,56825,999,17328,-.163632E-4,-.712E-5,0
STARLINK-30114,2023-079D,2026-07-20T23:48:51.259680,15.27581375,.00011649,43.0015,74.1719,271.6616,88.4102,0,U,56826,999,17358,.19221464E-4,.267E-5,0
STARLINK-30151,2023-079E,2026-07-21T01:10:06.096288,15.27584595,.00012454,43.0031,73.9152,265.7140,94.3569,0,U,56827,999,17328,.66524175E-4,.1569E-4,0
STARLINK-30152,2023-079F,2026-07-20T23:41:29.940576,15.27582033,.00011086,43.0030,74.3244,268.5204,91.5521,0,U,56828,999,17327,.3657217E-4,.745E-5,0
STARLINK-30128,2023-079K,2026-07-21T14:48:46.740960,15.27566737,.00021692,43.0020,44.8832,251.0269,109.0348,0,U,56832,999,16726,-.93845133E-4,-.2843E-4,0
STARLINK-30131,2023-079L,2026-07-20T00:17:41.390304,15.24930458,.00045263,43.0043,58.7847,242.8394,117.1995,0,U,56833,999,17336,.49984039E-3,.12463E-3,0
STARLINK-30069,2023-079M,2026-07-20T23:36:39.592512,15.27576916,.00013508,43.0014,70.8824,261.6090,98.4609,0,U,56834,999,17331,.24194012E-4,.404E-5,0
STARLINK-30144,2023-079N,2026-07-20T23:48:50.724864,15.43152479,.00167695,42.9919,62.2093,245.3074,114.6037,0,U,56835,999,17341,.66615145E-3,.30162E-3,0
STARLINK-30142,2023-079P,2026-07-20T22:19:09.201504,15.27582336,.00010044,43.0023,71.3443,265.7095,94.3642,0,U,56836,999,17330,.13108476E-4,.99E-6,0
STARLINK-30133,2023-079Q,2026-07-21T00:25:42.005856,15.27565707,.00012677,43.0042,73.6854,262.7343,97.3365,0,U,56837,999,17328,.90592464E-4,.223E-4,0
STARLINK-30123,2023-079R,2026-07-21T10:53:32.455968,15.27577217,.00010393,43.0017,358.5126,271.3730,88.7002,0,U,56838,999,17420,.26780869E-4,.475E-5,0
STARLINK-30076,2023-079S,2026-07-20T23:34:05.582784,15.27583513,.00011882,43.0037,74.2673,271.3000,88.7715,0,U,56839,999,17327,.42264935E-4,.901E-5,0
STARLINK-30073,2023-079T,2026-07-21T14:00:01.999872,15.27552847,.00015718,43.0021,256.2203,284.3688,337.4589,0,U,56840,999,585,.21859808E-2,.60335E-3,0
STARLINK-30078,2023-079U,2026-07-21T12:06:30.073536,15.27580471,.00013547,43.0036,23.6478,263.4318,96.6379,0,U,56841,999,17391,.2547492E-4,.439E-5,0
STARLINK-30135,2023-079V,2026-07-20T23:54:25.806528,15.27578438,.00012313,43.0021,74.2907,271.7973,88.2737,0,U,56842,999,17327,-.642735E-6,-.28E-5,0
STARLINK-30137,2023-079W,2026-07-21T08:44:12.882336,15.27574762,.00014001,43.0050,71.8941,264.7933,95.2759,0,U,56843,999,17333,-.3334802E-5,-.354E-5,0
